0 HOT BIRD 1
1 23537U 95016B   13281.54595392  .00000020  00000-0  10000-3 0  8173
2 23537 006.7426 057.6593 0005020 049.3189 310.7772 00.99316396 67694
0 HOT BIRD 1
1 23537U 95016B   13285.57328448 -.00000074  00000-0  10000-3 0  8198
2 23537 006.7504 057.6163 0004917 050.5456 309.5532 00.99318036 67737
0 HOT BIRD 1
1 23537U 95016B   13287.58692198 -.00000125  00000-0  10000-3 0  8206
2 23537 006.7545 057.5947 0004892 051.1047 308.9938 00.99318715 67755
0 HOT BIRD 1
1 23537U 95016B   13290.60724623 -.00000197  00000-0  10000-3 0  8212
2 23537 006.7603 057.5622 0004715 052.8686 307.1911 00.99319465 67789
0 HOT BIRD 1
1 23537U 95016B   13290.60727924  .00000000  00000-0  10000-3 0  8222
2 23537 006.7618 057.5604 0004121 054.4326 305.6290 00.99315681 67784
0 HOT BIRD 1
1 23537U 95016B   13292.62075986 -.00000239  00000-0  10000-3 0  8225
2 23537 006.7642 057.5408 0004759 052.5376 307.4879 00.99319702 67808
0 HOT BIRD 1
1 23537U 95016B   13294.63431644 -.00000275  00000-0  10000-3 0  8236
2 23537 006.7683 057.5188 0004707 053.1171 306.8886 00.99319691 67821
